{
    "links": {
        "self": "http://www.neowsapp.com/rest/v1/neo/3781971?api_key=iIulBulltgU6a56xZRHN4H3l9WmuAYTsLGpBGhQ2"
    },
    "id": "3781971",
    "neo_reference_id": "3781971",
    "name": "(2017 SJ19)",
    "designation": "2017 SJ19",
    "nasa_jpl_url": "http://ssd.jpl.nasa.gov/sbdb.cgi?sstr=3781971",
    "absolute_magnitude_h": 27.1,
    "estimated_diameter": {
        "kilometers": {
            "estimated_diameter_min": 0.0101054342,
            "estimated_diameter_max": 0.0225964377
        },
        "meters": {
            "estimated_diameter_min": 10.1054341542,
            "estimated_diameter_max": 22.5964377109
        },
        "miles": {
            "estimated_diameter_min": 0.0062792237,
            "estimated_diameter_max": 0.0140407711
        },
        "feet": {
            "estimated_diameter_min": 33.1543125905,
            "estimated_diameter_max": 74.1352966996
        }
    },
    "is_potentially_hazardous_asteroid": false,
    "close_approach_data": [
        {
            "close_approach_date": "2017-10-04",
            "close_approach_date_full": "2017-Oct-04 03:17",
            "epoch_date_close_approach": 1507087020000,
            "relative_velocity": {
                "kilometers_per_second": "5.5178740638",
                "kilometers_per_hour": "19864.3466295826",
                "miles_per_hour": "12342.9324932537"
            },
            "miss_distance": {
                "astronomical": "0.0439769442",
                "lunar": "17.1070312938",
                "kilometers": "6578857.181428854",
                "miles": "4087912.2935280252"
            },
            "orbiting_body": "Earth"
        }
    ],
    "orbital_data": {
        "orbit_id": "1",
        "orbit_determination_date": "2017-09-30 10:42:08",
        "first_observation_date": "2017-09-24",
        "last_observation_date": "2017-09-30",
        "data_arc_in_days": 6,
        "observations_used": 12,
        "orbit_uncertainty": "9",
        "minimum_orbit_intersection": ".0437312",
        "jupiter_tisserand_invariant": "4.065",
        "epoch_osculation": "2458021.5",
        "eccentricity": ".3968687569538707",
        "semi_major_axis": "1.727867377694912",
        "inclination": "5.215473407088876",
        "ascending_node_longitude": "185.3537665657689",
        "orbital_period": "829.5910053192795",
        "perihelion_distance": "1.042130799327988",
        "perihelion_argument": "190.4462127563583",
        "aphelion_distance": "2.413603956061836",
        "perihelion_time": "2458035.298681196165",
        "mean_anomaly": "354.0120792067802",
        "mean_motion": ".4339487743860592",
        "equinox": "J2000",
        "orbit_class": {
            "orbit_class_type": "AMO",
            "orbit_class_description": "Near-Earth asteroid orbits similar to that of 1221 Amor",
            "orbit_class_range": "1.017 AU < q (perihelion) < 1.3 AU"
        }
    },
    "is_sentry_object": false
}